CCSDS_OMM_VERS = 2.0
CREATION_DATE  = 
ORIGINATOR     = 

OBJECT_NAME    = HULIANWANG DIGUI-125
OBJECT_ID      = 2025-295G
CENTER_NAME    = EARTH
REF_FRAME      = TEME
TIME_SYSTEM    = UTC
MEAN_ELEMENT_THEORY = SGP/SGP4

EPOCH          = 2026-01-08T01:35:53.884896
MEAN_MOTION    = 14.22591554
ECCENTRICITY   = .0008809
INCLINATION    = 49.9982
RA_OF_ASC_NODE = 261.1387
ARG_OF_PERICENTER = 347.7871
MEAN_ANOMALY   = 12.2827

EPHEMERIS_TYPE = 0
CLASSIFICATION_TYPE = U
NORAD_CAT_ID   = 67065
ELEMENT_SET_NO = 999
REV_AT_EPOCH   = 387
BSTAR          = .12777E-3
MEAN_MOTION_DOT = .128E-5
MEAN_MOTION_DDOT = 0

CCSDS_OMM_VERS = 2.0
CREATION_DATE  = 
ORIGINATOR     = 

OBJECT_NAME    = HULIANWANG DIGUI-126
OBJECT_ID      = 2025-295H
CENTER_NAME    = EARTH
REF_FRAME      = TEME
TIME_SYSTEM    = UTC
MEAN_ELEMENT_THEORY = SGP/SGP4

EPOCH          = 2026-01-08T06:36:41.432256
MEAN_MOTION    = 14.22985344
ECCENTRICITY   = .0006784
INCLINATION    = 49.9993
RA_OF_ASC_NODE = 260.2462
ARG_OF_PERICENTER = 339.4858
MEAN_ANOMALY   = 20.5781

EPHEMERIS_TYPE = 0
CLASSIFICATION_TYPE = U
NORAD_CAT_ID   = 67066
ELEMENT_SET_NO = 999
REV_AT_EPOCH   = 390
BSTAR          = .7327E-4
MEAN_MOTION_DOT = .7E-7
MEAN_MOTION_DDOT = 0

CCSDS_OMM_VERS = 2.0
CREATION_DATE  = 
ORIGINATOR     = 

OBJECT_NAME    = HULIANWANG DIGUI-127
OBJECT_ID      = 2025-295J
CENTER_NAME    = EARTH
REF_FRAME      = TEME
TIME_SYSTEM    = UTC
MEAN_ELEMENT_THEORY = SGP/SGP4

EPOCH          = 2026-01-08T06:35:06.831168
MEAN_MOTION    = 14.23006218
ECCENTRICITY   = .0006245
INCLINATION    = 50.0028
RA_OF_ASC_NODE = 260.2512
ARG_OF_PERICENTER = 346.5254
MEAN_ANOMALY   = 13.5491

EPHEMERIS_TYPE = 0
CLASSIFICATION_TYPE = U
NORAD_CAT_ID   = 67067
ELEMENT_SET_NO = 999
REV_AT_EPOCH   = 390
BSTAR          = -.38885E-3
MEAN_MOTION_DOT = -.1041E-4
MEAN_MOTION_DDOT = 0

CCSDS_OMM_VERS = 2.0
CREATION_DATE  = 
ORIGINATOR     = 

OBJECT_NAME    = CZ-12 R/B
OBJECT_ID      = 2025-295K
CENTER_NAME    = EARTH
REF_FRAME      = TEME
TIME_SYSTEM    = UTC
MEAN_ELEMENT_THEORY = SGP/SGP4

EPOCH          = 2026-01-08T22:43:57.556416
MEAN_MOTION    = 14.41136653
ECCENTRICITY   = .0056862
INCLINATION    = 49.9928
RA_OF_ASC_NODE = 254.3791
ARG_OF_PERICENTER = 233.3890
MEAN_ANOMALY   = 126.1792

EPHEMERIS_TYPE = 0
CLASSIFICATION_TYPE = U
NORAD_CAT_ID   = 67068
ELEMENT_SET_NO = 999
REV_AT_EPOCH   = 403
BSTAR          = .37064E-4
MEAN_MOTION_DOT = -.45E-6
MEAN_MOTION_DDOT = 0

CCSDS_OMM_VERS = 2.0
CREATION_DATE  = 
ORIGINATOR     = 

OBJECT_NAME    = XIWANG-5 02
OBJECT_ID      = 2025-296A
CENTER_NAME    = EARTH
REF_FRAME      = TEME
TIME_SYSTEM    = UTC
MEAN_ELEMENT_THEORY = SGP/SGP4

EPOCH          = 2026-01-08T22:28:44.594400
MEAN_MOTION    = 15.13208164
ECCENTRICITY   = .000152
INCLINATION    = 41.3524
RA_OF_ASC_NODE = 306.9960
ARG_OF_PERICENTER = 351.6931
MEAN_ANOMALY   = 8.3863

EPHEMERIS_TYPE = 0
CLASSIFICATION_TYPE = U
NORAD_CAT_ID   = 67069
ELEMENT_SET_NO = 999
REV_AT_EPOCH   = 408
BSTAR          = .60127E-3
MEAN_MOTION_DOT = .10698E-3
MEAN_MOTION_DDOT = 0

CCSDS_OMM_VERS = 2.0
CREATION_DATE  = 
ORIGINATOR     = 

OBJECT_NAME    = DEAR-5
OBJECT_ID      = 2025-296B
CENTER_NAME    = EARTH
REF_FRAME      = TEME
TIME_SYSTEM    = UTC
MEAN_ELEMENT_THEORY = SGP/SGP4

EPOCH          = 2026-01-08T13:31:53.576256
MEAN_MOTION    = 15.17039964
ECCENTRICITY   = .0020416
INCLINATION    = 41.3572
RA_OF_ASC_NODE = 308.5545
ARG_OF_PERICENTER = 207.8311
MEAN_ANOMALY   = 152.1419

EPHEMERIS_TYPE = 0
CLASSIFICATION_TYPE = U
NORAD_CAT_ID   = 67070
ELEMENT_SET_NO = 999
REV_AT_EPOCH   = 402
BSTAR          = .24185E-3
MEAN_MOTION_DOT = .4698E-4
MEAN_MOTION_DDOT = 0

CCSDS_OMM_VERS = 2.0
CREATION_DATE  = 
ORIGINATOR     = 

OBJECT_NAME    = RAISE-4
OBJECT_ID      = 2025-297B
CENTER_NAME    = EARTH
REF_FRAME      = TEME
TIME_SYSTEM    = UTC
MEAN_ELEMENT_THEORY = SGP/SGP4

EPOCH          = 2026-01-08T15:39:17.201952
MEAN_MOTION    = 15.07441360
ECCENTRICITY   = .00118236
INCLINATION    = 97.4866
RA_OF_ASC_NODE = 160.4805
ARG_OF_PERICENTER = 220.2121
MEAN_ANOMALY   = 139.8233

EPHEMERIS_TYPE = 0
CLASSIFICATION_TYPE = U
NORAD_CAT_ID   = 67073
ELEMENT_SET_NO = 999
REV_AT_EPOCH   = 384
BSTAR          = .36463623E-3
MEAN_MOTION_DOT = .5473E-4
MEAN_MOTION_DDOT = 0

CCSDS_OMM_VERS = 2.0
CREATION_DATE  = 
ORIGINATOR     = 

OBJECT_NAME    = ELECTRON KICK STAGE R/B
OBJECT_ID      = 2025-297C
CENTER_NAME    = EARTH
REF_FRAME      = TEME
TIME_SYSTEM    = UTC
MEAN_ELEMENT_THEORY = SGP/SGP4

EPOCH          = 2026-01-08T23:22:13.137888
MEAN_MOTION    = 15.74058374
ECCENTRICITY   = .0145564
INCLINATION    = 97.4771
RA_OF_ASC_NODE = 162.9871
ARG_OF_PERICENTER = 169.7913
MEAN_ANOMALY   = 190.6366

EPHEMERIS_TYPE = 0
CLASSIFICATION_TYPE = U
NORAD_CAT_ID   = 67074
ELEMENT_SET_NO = 999
REV_AT_EPOCH   = 403
BSTAR          = .17927E-2
MEAN_MOTION_DOT = .504269E-2
MEAN_MOTION_DDOT = .82572E-4

CCSDS_OMM_VERS = 2.0
CREATION_DATE  = 
ORIGINATOR     = 

OBJECT_NAME    = STARLINK-36230
OBJECT_ID      = 2025-298A
CENTER_NAME    = EARTH
REF_FRAME      = TEME
TIME_SYSTEM    = UTC
MEAN_ELEMENT_THEORY = SGP/SGP4

EPOCH          = 2026-01-09T00:00:02.998944
MEAN_MOTION    = 15.43181684
ECCENTRICITY   = .0003246
INCLINATION    = 69.9998
RA_OF_ASC_NODE = 173.5991
ARG_OF_PERICENTER = 288.9950
MEAN_ANOMALY   = 329.0790

EPHEMERIS_TYPE = 0
CLASSIFICATION_TYPE = U
NORAD_CAT_ID   = 67075
ELEMENT_SET_NO = 999
REV_AT_EPOCH   = 535
BSTAR          = -.17556E-1
MEAN_MOTION_DOT = -.722294E-2
MEAN_MOTION_DDOT = 0

CCSDS_OMM_VERS = 2.0
CREATION_DATE  = 
ORIGINATOR     = 

OBJECT_NAME    = STARLINK-36240
OBJECT_ID      = 2025-298B
CENTER_NAME    = EARTH
REF_FRAME      = TEME
TIME_SYSTEM    = UTC
MEAN_ELEMENT_THEORY = SGP/SGP4

EPOCH          = 2026-01-08T22:48:49.001760
MEAN_MOTION    = 15.46926246
ECCENTRICITY   = .0004283
INCLINATION    = 70.0004
RA_OF_ASC_NODE = 173.7148
ARG_OF_PERICENTER = 287.5696
MEAN_ANOMALY   = 72.5020

EPHEMERIS_TYPE = 0
CLASSIFICATION_TYPE = U
NORAD_CAT_ID   = 67076
ELEMENT_SET_NO = 999
REV_AT_EPOCH   = 405
BSTAR          = -.69632E-2
MEAN_MOTION_DOT = -.337385E-2
MEAN_MOTION_DDOT = 0

CCSDS_OMM_VERS = 2.0
CREATION_DATE  = 
ORIGINATOR     = 

OBJECT_NAME    = STARLINK-36243
OBJECT_ID      = 2025-298C
CENTER_NAME    = EARTH
REF_FRAME      = TEME
TIME_SYSTEM    = UTC
MEAN_ELEMENT_THEORY = SGP/SGP4

EPOCH          = 2026-01-09T00:00:02.998944
MEAN_MOTION    = 15.42731617
ECCENTRICITY   = .0003909
INCLINATION    = 69.9998
RA_OF_ASC_NODE = 173.6518
ARG_OF_PERICENTER = 275.8784
MEAN_ANOMALY   = 296.3439

EPHEMERIS_TYPE = 0
CLASSIFICATION_TYPE = U
NORAD_CAT_ID   = 67077
ELEMENT_SET_NO = 999
REV_AT_EPOCH   = 535
BSTAR          = .90675E-4
MEAN_MOTION_DOT = .3827E-4
MEAN_MOTION_DDOT = 0

CCSDS_OMM_VERS = 2.0
CREATION_DATE  = 
ORIGINATOR     = 

OBJECT_NAME    = STARLINK-36236
OBJECT_ID      = 2025-298D
CENTER_NAME    = EARTH
REF_FRAME      = TEME
TIME_SYSTEM    = UTC
MEAN_ELEMENT_THEORY = SGP/SGP4

EPOCH          = 2026-01-09T00:00:02.998944
MEAN_MOTION    = 15.42711738
ECCENTRICITY   = .0003137
INCLINATION    = 69.9998
RA_OF_ASC_NODE = 173.6258
ARG_OF_PERICENTER = 277.5528
MEAN_ANOMALY   = 317.7256

EPHEMERIS_TYPE = 0
CLASSIFICATION_TYPE = U
NORAD_CAT_ID   = 67078
ELEMENT_SET_NO = 999
REV_AT_EPOCH   = 535
BSTAR          = -.12558E-4
MEAN_MOTION_DOT = -.698E-5
MEAN_MOTION_DDOT = 0

