HULIANWANG DIGUI-125    
1 67065U 25295G   26008.06659589  .00000128  00000+0  12777-3 0  9998
2 67065  49.9982 261.1387 0008809 347.7871  12.2827 14.22591554  3875
HULIANWANG DIGUI-126    
1 67066U 25295H   26008.27547954  .00000007  00000+0  73270-4 0  9996
2 67066  49.9993 260.2462 0006784 339.4858  20.5781 14.22985344  3904
HULIANWANG DIGUI-127    
1 67067U 25295J   26008.27438462 -.00001041  00000+0 -38885-3 0  9993
2 67067  50.0028 260.2512 0006245 346.5254  13.5491 14.23006218  3909
CZ-12 R/B               
1 67068U 25295K   26008.94719394 -.00000045  00000+0  37064-4 0  9995
2 67068  49.9928 254.3791 0056862 233.3890 126.1792 14.41136653  4035
XIWANG-5 02             
1 67069U 25296A   26008.93662725  .00010698  00000+0  60127-3 0  9990
2 67069  41.3524 306.9960 0001520 351.6931   8.3863 15.13208164  4089
DEAR-5                  
1 67070U 25296B   26008.56381454  .00004698  00000+0  24185-3 0  9995
2 67070  41.3572 308.5545 0020416 207.8311 152.1419 15.17039964  4023
RAISE-4                 
1 67073U 25297B   26008.65228243  .00005473  00000+0  36464-3 0  9990
2 67073  97.4866 160.4805 0011823 220.2121 139.8233 15.07441360  3849
ELECTRON KICK STAGE R/B 
1 67074U 25297C   26008.97376317  .00504269  82572-4  17927-2 0  9990
2 67074  97.4771 162.9871 0145564 169.7913 190.6366 15.74058374  4038
STARLINK-36230          
1 67075U 25298A   26009.00003471 -.00722294  00000+0 -17556-1 0  9995
2 67075  69.9998 173.5991 0003246 288.9950 329.0790 15.43181684  5352
STARLINK-36240          
1 67076U 25298B   26008.95056715 -.00337385  00000+0 -69632-2 0  9994
2 67076  70.0004 173.7148 0004283 287.5696  72.5020 15.46926246  4050
STARLINK-36243          
1 67077U 25298C   26009.00003471  .00003827  00000+0  90675-4 0  9995
2 67077  69.9998 173.6518 0003909 275.8784 296.3439 15.42731617  5358
STARLINK-36236          
1 67078U 25298D   26009.00003471 -.00000698  00000+0 -12558-4 0  9995
2 67078  69.9998 173.6258 0003137 277.5528 317.7256 15.42711738  5355
